[{"OBJECT_NAME":"COSMOS 2494 (SKRL-756 2)","OBJECT_ID":"2013-078B","EPOCH":"2026-03-09T22:07:38.657280","MEAN_MOTION":15.04216116,"ECCENTRICITY":0.00160459,"INCLINATION":82.4161,"RA_OF_ASC_NODE":348.0656,"ARG_OF_PERICENTER":176.5861,"MEAN_ANOMALY":183.5478,"EPHEMERIS_TYPE":0,"CLASSIFICATION_TYPE":"U","NORAD_CAT_ID":39491,"ELEMENT_SET_NO":999,"REV_AT_EPOCH":66388,"BSTAR":0.0003906904,"MEAN_MOTION_DOT":5.469e-5,"MEAN_MOTION_DDOT":0},{"OBJECT_NAME":"STARLINK-34805","OBJECT_ID":"2025-165R","EPOCH":"2026-03-09T17:29:29.820768","MEAN_MOTION":15.05650108,"ECCENTRICITY":7.037e-5,"INCLINATION":97.6032,"RA_OF_ASC_NODE":147.2278,"ARG_OF_PERICENTER":127.4817,"MEAN_ANOMALY":232.6474,"EPHEMERIS_TYPE":0,"CLASSIFICATION_TYPE":"U","NORAD_CAT_ID":65071,"ELEMENT_SET_NO":999,"REV_AT_EPOCH":3479,"BSTAR":6.8802336e-5,"MEAN_MOTION_DOT":9.32e-6,"MEAN_MOTION_DDOT":0}]
